IRIDIUM 150             
1 43257U 18030J   25215.07346482  .00000034  00000+0  49095-5 0  9990
2 43257  86.3923  63.4520 0001997  94.2629 265.8795 14.34217753384589
IRIDIUM 143             
1 43258U 18030K   25214.56605755  .00000019  00000+0 -31952-6 0  9993
2 43258  86.3923  63.7445 0001882 101.4455 258.6952 14.34217493384452
IRIDIUM 161             
1 43478U 18047C   25215.07910708  .00000171  00000+0  44766-4 0  9992
2 43478  86.4474 221.3380 0002406  84.2992 275.8483 14.43280433379251
IRIDIUM 152             
1 43479U 18047D   25215.44576612 -.00000041  00000+0 -21593-4 0  9997
2 43479  86.3952 221.0456 0002128  86.3773 273.7666 14.34217115376955
IRIDIUM 147             
1 43480U 18047E   25215.45210975  .00000052  00000+0  11592-4 0  9995
2 43480  86.3951 221.0425 0002421  88.7222 271.4251 14.34217774376948
IRIDIUM 110             
1 43481U 18047F   25215.10960943  .00000038  00000+0  65628-5 0  9999
2 43481  86.3952 221.2691 0002499  79.4616 280.6861 14.34217682376886
IRIDIUM 162             
1 43482U 18047G   25214.51816319  .00000172  00000+0  45104-4 0  9996
2 43482  86.4473 221.4674 0002265  81.8492 278.2966 14.43279144379163
IRIDIUM 160             
1 43569U 18061A   25215.47405617  .00000010  00000+0 -34132-5 0  9991
2 43569  86.4008 189.5358 0002258  81.3643 278.7809 14.34217348367831
